{
  "type": "FeatureCollection",
  "features": [
    {
      "type": "Feature",
      "properties": {
        "norad_id": 51444,
        "name": "CSG-2",
        "group": "resource",
        "lat": -5.173109609611315,
        "lon": 168.53032907072284,
        "alt_km": 626.1130254039517,
        "timestamp": "2025-12-12T11:38:31.074074+00:00",
        "meta_object_name": "CSG-2",
        "meta_object_id": "2022-008A",
        "meta_epoch": "2025-12-12T05:11:04.195392",
        "meta_mean_motion": 14.82164616,
        "meta_eccentricity": 0.0001539,
        "meta_inclination": 97.8808,
        "meta_ra_of_asc_node": 167.5469,
        "meta_arg_of_pericenter": 82.6624,
        "meta_mean_anomaly": 277.4764,
        "meta_ephemeris_type": 0,
        "meta_classification_type": "U",
        "meta_norad_cat_id": 51444,
        "meta_element_set_no": 999,
        "meta_rev_at_epoch": 20889,
        "meta_bstar": 0.0001621,
        "meta_mean_motion_dot": 1.239e-05,
        "meta_mean_motion_ddot": 0,
        "tle_line1": "1 51444U 22008A   25346.21602078  .00001239  00000+0  16210-3 0  9993",
        "tle_line2": "2 51444  97.8808 167.5469 0001539  82.6624 277.4764 14.82164616208897"
      },
      "geometry": {
        "type": "Point",
        "coordinates": [
          168.53032907072284,
          -5.173109609611315
        ]
      }
    },
    {
      "type": "Feature",
      "properties": {
        "norad_id": 52912,
        "name": "GAOFEN-12 03",
        "group": "resource",
        "lat": -81.29544126201496,
        "lon": -61.890674589192756,
        "alt_km": 639.2179683361464,
        "timestamp": "2025-12-12T11:38:31.074084+00:00",
        "meta_object_name": "GAOFEN-12 03",
        "meta_object_id": "2022-069A",
        "meta_epoch": "2025-12-12T05:32:20.859072",
        "meta_mean_motion": 14.79607899,
        "meta_eccentricity": 0.0002195,
        "meta_inclination": 97.8476,
        "meta_ra_of_asc_node": 233.5915,
        "meta_arg_of_pericenter": 62.4981,
        "meta_mean_anomaly": 297.6454,
        "meta_ephemeris_type": 0,
        "meta_classification_type": "U",
        "meta_norad_cat_id": 52912,
        "meta_element_set_no": 999,
        "meta_rev_at_epoch": 18696,
        "meta_bstar": 0.0003001,
        "meta_mean_motion_dot": 2.198e-05,
        "meta_mean_motion_ddot": 0,
        "tle_line1": "1 52912U 22069A   25346.23079698  .00002198  00000+0  30010-3 0  9998",
        "tle_line2": "2 52912  97.8476 233.5915 0002195  62.4981 297.6454 14.79607899186964"
      },
      "geometry": {
        "type": "Point",
        "coordinates": [
          -61.890674589192756,
          -81.29544126201496
        ]
      }
    },
    {
      "type": "Feature",
      "properties": {
        "norad_id": 54754,
        "name": "SWOT",
        "group": "resource",
        "lat": -37.06022368879106,
        "lon": -82.22180336304558,
        "alt_km": 899.5620289055132,
        "timestamp": "2025-12-12T11:38:31.074094+00:00",
        "meta_object_name": "SWOT",
        "meta_object_id": "2022-173A",
        "meta_epoch": "2025-12-12T03:14:56.666112",
        "meta_mean_motion": 14.00174564,
        "meta_eccentricity": 3.38e-05,
        "meta_inclination": 77.6106,
        "meta_ra_of_asc_node": 287.8054,
        "meta_arg_of_pericenter": 112.7607,
        "meta_mean_anomaly": 247.3581,
        "meta_ephemeris_type": 0,
        "meta_classification_type": "U",
        "meta_norad_cat_id": 54754,
        "meta_element_set_no": 999,
        "meta_rev_at_epoch": 15297,
        "meta_bstar": 5.0213e-05,
        "meta_mean_motion_dot": 7.2e-07,
        "meta_mean_motion_ddot": 0,
        "tle_line1": "1 54754U 22173A   25346.13537808  .00000072  00000+0  50213-4 0  9998",
        "tle_line2": "2 54754  77.6106 287.8054 0000338 112.7607 247.3581 14.00174564152972"
      },
      "geometry": {
        "type": "Point",
        "coordinates": [
          -82.22180336304558,
          -37.06022368879106
        ]
      }
    },
    {
      "type": "Feature",
      "properties": {
        "norad_id": 57654,
        "name": "GAOFEN-12 04",
        "group": "resource",
        "lat": 79.63554204023797,
        "lon": -147.24815123542314,
        "alt_km": 621.9732996649491,
        "timestamp": "2025-12-12T11:38:31.074104+00:00",
        "meta_object_name": "GAOFEN-12 04",
        "meta_object_id": "2023-123A",
        "meta_epoch": "2025-12-12T04:46:31.057248",
        "meta_mean_motion": 14.79698316,
        "meta_eccentricity": 0.0001338,
        "meta_inclination": 97.9116,
        "meta_ra_of_asc_node": 261.9645,
        "meta_arg_of_pericenter": 74.4456,
        "meta_mean_anomaly": 285.6904,
        "meta_ephemeris_type": 0,
        "meta_classification_type": "U",
        "meta_norad_cat_id": 57654,
        "meta_element_set_no": 999,
        "meta_rev_at_epoch": 12497,
        "meta_bstar": 0.00033158,
        "meta_mean_motion_dot": 2.439e-05,
        "meta_mean_motion_ddot": 0,
        "tle_line1": "1 57654U 23123A   25346.19897057  .00002439  00000+0  33158-3 0  9994",
        "tle_line2": "2 57654  97.9116 261.9645 0001338  74.4456 285.6904 14.79698316124971"
      },
      "geometry": {
        "type": "Point",
        "coordinates": [
          -147.24815123542314,
          79.63554204023797
        ]
      }
    },
    {
      "type": "Feature",
      "properties": {
        "norad_id": 59065,
        "name": "PARS 1",
        "group": "resource",
        "lat": 62.79555278042743,
        "lon": -57.363541624190574,
        "alt_km": 428.6924235590868,
        "timestamp": "2025-12-12T11:38:31.074114+00:00",
        "meta_object_name": "PARS 1",
        "meta_object_id": "2024-039Q",
        "meta_epoch": "2025-12-12T05:07:58.108800",
        "meta_mean_motion": 15.40955164,
        "meta_eccentricity": 0.0012594,
        "meta_inclination": 97.4636,
        "meta_ra_of_asc_node": 317.1356,
        "meta_arg_of_pericenter": 73.9519,
        "meta_mean_anomaly": 286.3114,
        "meta_ephemeris_type": 0,
        "meta_classification_type": "U",
        "meta_norad_cat_id": 59065,
        "meta_element_set_no": 999,
        "meta_rev_at_epoch": 9980,
        "meta_bstar": 0.00041642,
        "meta_mean_motion_dot": 0.00017122,
        "meta_mean_motion_ddot": 0,
        "tle_line1": "1 59065U 24039Q   25346.21386700  .00017122  00000+0  41642-3 0  9992",
        "tle_line2": "2 59065  97.4636 317.1356 0012594  73.9519 286.3114 15.40955164 99804"
      },
      "geometry": {
        "type": "Point",
        "coordinates": [
          -57.363541624190574,
          62.79555278042743
        ]
      }
    },
    {
      "type": "Feature",
      "properties": {
        "norad_id": 59371,
        "name": "RESURS-P 4",
        "group": "resource",
        "lat": -33.85838713396511,
        "lon": 107.91796210201646,
        "alt_km": 476.8989440701698,
        "timestamp": "2025-12-12T11:38:31.074124+00:00",
        "meta_object_name": "RESURS-P 4",
        "meta_object_id": "2024-061A",
        "meta_epoch": "2025-12-12T04:26:25.703808",
        "meta_mean_motion": 15.32078394,
        "meta_eccentricity": 0.000155,
        "meta_inclination": 97.254,
        "meta_ra_of_asc_node": 292.5265,
        "meta_arg_of_pericenter": 52.4602,
        "meta_mean_anomaly": 307.6781,
        "meta_ephemeris_type": 0,
        "meta_classification_type": "U",
        "meta_norad_cat_id": 59371,
        "meta_element_set_no": 999,
        "meta_rev_at_epoch": 9512,
        "meta_bstar": 0.00020065,
        "meta_mean_motion_dot": 6.138e-05,
        "meta_mean_motion_ddot": 0,
        "tle_line1": "1 59371U 24061A   25346.18501972  .00006138  00000+0  20065-3 0  9994",
        "tle_line2": "2 59371  97.2540 292.5265 0001550  52.4602 307.6781 15.32078394 95126"
      },
      "geometry": {
        "type": "Point",
        "coordinates": [
          107.91796210201646,
          -33.85838713396511
        ]
      }
    },
    {
      "type": "Feature",
      "properties": {
        "norad_id": 59625,
        "name": "LEGION 1",
        "group": "resource",
        "lat": 81.74469283943314,
        "lon": -53.28261248855377,
        "alt_km": 510.93467461494674,
        "timestamp": "2025-12-12T11:38:31.074134+00:00",
        "meta_object_name": "LEGION 1",
        "meta_object_id": "2024-081A",
        "meta_epoch": "2025-12-12T03:18:48.841056",
        "meta_mean_motion": 15.16471729,
        "meta_eccentricity": 0.0003978,
        "meta_inclination": 97.5212,
        "meta_ra_of_asc_node": 60.7812,
        "meta_arg_of_pericenter": 321.2916,
        "meta_mean_anomaly": 38.8031,
        "meta_ephemeris_type": 0,
        "meta_classification_type": "U",
        "meta_norad_cat_id": 59625,
        "meta_element_set_no": 999,
        "meta_rev_at_epoch": 8918,
        "meta_bstar": 0.00039706,
        "meta_mean_motion_dot": 7.665e-05,
        "meta_mean_motion_ddot": 0,
        "tle_line1": "1 59625U 24081A   25346.13806529  .00007665  00000+0  39706-3 0  9997",
        "tle_line2": "2 59625  97.5212  60.7812 0003978 321.2916  38.8031 15.16471729 89182"
      },
      "geometry": {
        "type": "Point",
        "coordinates": [
          -53.28261248855377,
          81.74469283943314
        ]
      }
    }
  ]
}